CCSDS_OMM_VERS,COMMENT,CREATION_DATE,ORIGINATOR,OBJECT_NAME,OBJECT_ID,CENTER_NAME,REF_FRAME,TIME_SYSTEM,MEAN_ELEMENT_THEORY,EPOCH,MEAN_MOTION,ECCENTRICITY,INCLINATION,RA_OF_ASC_NODE,ARG_OF_PERICENTER,MEAN_ANOMALY,EPHEMERIS_TYPE,CLASSIFICATION_TYPE,NORAD_CAT_ID,ELEMENT_SET_NO,REV_AT_EPOCH,BSTAR,MEAN_MOTION_DOT,MEAN_MOTION_DDOT,SEMIMAJOR_AXIS,PERIOD,APOAPSIS,PERIAPSIS,OBJECT_TYPE,RCS_SIZE,COUNTRY_CODE,LAUNCH_DATE,SITE,DECAY_DATE,FILE,GP_ID,TLE_LINE0,TLE_LINE1,TLE_LINE2,NORAD_KEY,JCAT,DeepCat,Satcat,Piece,Active,Type,Name,LDate,Parent,Owner,State,SDate,ExpandedStatus,DDate,ODate,Period,Perigee,PF,Apogee,AF,Inc,IF,OpOrbit,SATCAT_KEY,DENSITY_SCORE
3.0,GENERATED VIA SPACE-TRACK.ORG API,2026-05-06T14:56:52,18 SPCS,COSMOS 1961,1988-066A,EARTH,TEME,UTC,SGP4,2026-05-06T11:18:41.298048,1.00269077,0.0002789,11.5181,330.0001,147.5784,356.5008,0,U,19344,999,13859,0.0,-1.47e-06,0.0,42165.491,1436.136,35799.116,35775.596,PAYLOAD,LARGE,CIS,1988-08-01,TTMTR,,5177394,322302797,0 COSMOS 1961,1 19344U 88066A   26126.47131132 -.00000147  00000-0  00000+0 0  9990,2 19344  11.5181 330.0001 0002789 147.5784 356.5008  1.00269077138594,19344,S19344,-,19344,1988-066A,P,P,Kosmos-1961,1988 Aug  1,S19347,VVKOV,SU,1988 Aug  2 0347?,In Earth orbit,-,2026 May  5 ,1436.133,35775, ,35798, ,11.52, ,GEO/I,19344,1.9875090541719733
3.0,GENERATED VIA SPACE-TRACK.ORG API,2026-05-06T14:56:52,18 SPCS,ECHOSTAR 12 (RAINBOW 1),2003-033A,EARTH,TEME,UTC,SGP4,2026-05-06T12:51:27.153216,0.98882086,0.0005998,6.1593,86.3256,139.8437,61.9369,0,U,27852,999,8320,0.0,6.7e-07,0.0,42558.871,1456.28,36206.262,36155.209,PAYLOAD,LARGE,US,2003-07-17,AFETR,,5177623,322308266,0 ECHOSTAR 12 (RAINBOW 1),1 27852U 03033A   26126.53573094  .00000067  00000-0  00000+0 0  9998,2 27852   6.1593  86.3256 0005998 139.8437  61.9369  0.98882086 83202,27852,S27852,-,27852,2003-033A,P,P,Echostar XII,2003 Jul 17,S27853,DISHE,US,2003 Jul 18 0125?,In Earth orbit,-,2026 May  5 ,1456.284,36155, ,36206, ,6.16, ,GEO/ID,27852,1.9879568762265705
3.0,GENERATED VIA SPACE-TRACK.ORG API,2026-05-06T14:56:52,18 SPCS,NSS 5 (INTELSAT 803),1997-053A,EARTH,TEME,UTC,SGP4,2026-05-06T11:17:22.948800,0.99101283,0.0004248,10.4386,48.3193,255.7559,163.8072,0,U,24957,999,10454,0.0,5.8e-07,0.0,42496.092,1453.059,36136.009,36099.904,PAYLOAD,LARGE,NETH,1997-09-23,FRGUI,,5177544,322306732,0 NSS 5 (INTELSAT 803),1 24957U 97053A   26126.47040450  .00000058  00000-0  00000+0 0  9994,2 24957  10.4386  48.3193 0004248 255.7559 163.8072  0.99101283104549,24957,S24957,-,24957,1997-053A,P,P,NSS 5,1997 Sep 23,A05979,SESSAN,NL,1997 Sep 24 0018,In Earth orbit,-,2026 May  4 ,1453.057,36099, ,36136, ,10.44, ,GEO/ID,24957,1.9886229780232478
3.0,GENERATED VIA SPACE-TRACK.ORG API,2026-05-06T10:08:52,18 SPCS,ESIAFI 1 (COMSTAR 4),1981-018A,EARTH,TEME,UTC,SGP4,2026-05-06T01:11:20.862528,1.00268269,0.00040205,8.7833,311.4949,76.3657,283.5944,0,U,12309,999,16702,0.0,-4.4e-07,0.0,42165.718,1436.147,35804.535,35770.63,PAYLOAD,LARGE,US,1981-02-21,AFETR,,5176958,322261448,0 ESIAFI 1 (COMSTAR 4),1 12309U 81018A   26126.04954702 -.00000044  00000-0  00000-0 0  9990,2 12309   8.7833 311.4949 0004020  76.3657 283.5944  1.00268269167022,12309,S12309,-,12309,1981-018A,P,P,Esiafi 1,1981 Feb 21,S12363,TONG,TO,1981 Feb 21 2351,In Earth orbit,-,2026 May  5 ,1436.147,35770, ,35804, ,8.79, ,GEO/I,12309,1.9889637351777105
3.0,GENERATED VIA SPACE-TRACK.ORG API,2026-05-06T15:06:46,18 SPCS,OPTUS D2,2007-044A,EARTH,TEME,UTC,SGP4,2026-05-06T11:17:58.187040,0.99347099,0.000306,1.9722,82.502,313.7534,331.4209,0,U,32252,999,6812,0.0,-2.41e-06,0.0,42425.964,1449.464,36060.811,36034.846,PAYLOAD,LARGE,AUS,2007-10-05,FRGUI,,5177785,322312104,0 OPTUS D2,1 32252U 07044A   26126.47081235 -.00000241  00000-0  00000+0 0  9993,2 32252   1.9722  82.5020 0003060 313.7534 331.4209  0.99347099 68128,32252,S32252,-,32252,2007-044A,P,P,Optus D2,2007 Oct  5,S32254,OPTS,AU,2007 Oct  5 2234,In Earth orbit,-,2026 May  5 ,1449.46,36034, ,36060, ,1.97, ,GEO/D,32252,1.992140340154565
3.0,GENERATED VIA SPACE-TRACK.ORG API,2026-05-06T15:06:46,18 SPCS,SKYNET 5B,2007-056B,EARTH,TEME,UTC,SGP4,2026-05-06T11:32:56.752224,1.00273821,0.0003846,5.1484,73.9863,324.9473,23.7298,0,U,32294,999,6777,0.0,1.49e-06,0.0,42164.161,1436.068,35802.243,35769.81,PAYLOAD,LARGE,UK,2007-11-14,FRGUI,,5177787,322312129,0 SKYNET 5B,1 32294U 07056B   26126.48121241  .00000149  00000-0  00000+0 0  9991,2 32294   5.1484  73.9863 0003846 324.9473  23.7298  1.00273821 67775,32294,S32294,-,32294,2007-056B,P,P,Skynet 5B,2007 Nov 14,S32296,BABCK,UK,2007 Nov 14 2233,In Earth orbit,-,2026 May  5 ,1436.077,35770, ,35802, ,5.14, ,GEO/I,32294,1.996245566443758
3.0,GENERATED VIA SPACE-TRACK.ORG API,2026-05-06T14:56:52,18 SPCS,ABS 4 (MBSAT),2004-007A,EARTH,TEME,UTC,SGP4,2026-05-06T11:43:10.770240,1.00269363,0.0005319,5.9382,72.5032,331.4508,57.2013,0,U,28184,999,5192,0.0,4.8e-07,0.0,42165.411,1436.132,35809.704,35764.848,PAYLOAD,LARGE,ABS,2004-03-13,AFETR,,5177629,322308857,0 ABS 4 (MBSAT),1 28184U 04007A   26126.48831910  .00000048  00000-0  00000+0 0  9996,2 28184   5.9382  72.5032 0005319 331.4508  57.2013  1.00269363 51928,28184,S28184,-,28184,2004-007A,P,P,ABS-4,2004 Mar 13,S28185,ABSHK,HK,2004 Mar 13 0608,In Earth orbit,-,2026 May  5 ,1436.051,35762, ,35808, ,5.93, ,GEO/I,28184,1.999642243583443
3.0,GENERATED VIA SPACE-TRACK.ORG API,2026-05-06T10:08:52,18 SPCS,COSMOS 1897,1987-096A,EARTH,TEME,UTC,SGP4,2026-05-06T01:33:04.258368,1.00321317,0.00066574,11.0842,327.185,132.6506,229.3958,0,U,18575,999,14077,0.0,-1.81e-06,0.0,42150.852,1435.388,35800.779,35744.655,PAYLOAD,LARGE,CIS,1987-11-26,TTMTR,,5176958,322263224,0 COSMOS 1897,1 18575U 87096A   26126.06463262 -.00000181  00000-0  00000-0 0  9993,2 18575  11.0842 327.1850 0006657 132.6506 229.3958  1.00321317140772,18575,S18575,-,18575,1987-096A,P,P,Kosmos-1897,1987 Nov 26,S18578,VVKOV,SU,1987 Nov 26 2005?,In Earth orbit,-,2026 May  5 ,1435.386,35744, ,35800, ,11.09, ,GEO/ID,18575,2.0006552675961102
3.0,GENERATED VIA SPACE-TRACK.ORG API,2026-05-06T14:56:52,18 SPCS,BSAT-2A,2001-011B,EARTH,TEME,UTC,SGP4,2026-05-06T11:18:24.041376,0.99174721,0.0003011,10.647,47.8708,234.4414,191.0767,0,U,26720,999,9156,0.0,3.4e-07,0.0,42475.11,1451.983,36109.765,36084.186,PAYLOAD,LARGE,JPN,2001-03-08,FRGUI,,5177597,322307893,0 BSAT-2A,1 26720U 01011B   26126.47111159  .00000034  00000-0  00000+0 0  9992,2 26720  10.6470  47.8708 0003011 234.4414 191.0767  0.99174721 91560,26720,S26720,-,26720,2001-011B,P,P,BSAT-2a,2001 Mar  8,S26721,BSAT,J,2001 Mar  8 2327,In Earth orbit,-,2026 May  3 ,1451.976,36083, ,36110, ,10.64, ,GEO/ID,26720,2.0014269910448257
3.0,GENERATED VIA SPACE-TRACK.ORG API,2026-05-06T14:56:52,18 SPCS,COSMOS 2350,1998-025A,EARTH,TEME,UTC,SGP4,2026-05-06T11:18:06.763104,1.00286693,0.0004982,13.9486,4.1555,174.2685,290.5644,0,U,25315,999,10259,0.0,-1.08e-06,0.0,42160.553,1435.883,35803.423,35761.414,PAYLOAD,LARGE,CIS,1998-04-29,TTMTR,,5177557,322306892,0 COSMOS 2350,1 25315U 98025A   26126.47091161 -.00000108  00000-0  00000+0 0  9995,2 25315  13.9486   4.1555 0004982 174.2685 290.5644  1.00286693102597,25315,S25315,-,25315,1998-025A,P,P,Kosmos-2350,1998 Apr 29,S25318,PVO,RU,1998 Apr 29 1130?,In Earth orbit,-,2026 May  4 ,1435.884,35761, ,35803, ,13.95, ,GEO/I,25315,2.0015590447619425
3.0,GENERATED VIA SPACE-TRACK.ORG API,2026-05-06T14:56:52,18 SPCS,DIRECTV 4S,2001-052A,EARTH,TEME,UTC,SGP4,2026-05-06T07:43:39.720864,0.99264185,0.0001517,6.1569,72.2047,52.1761,157.4052,0,U,26985,999,5065,0.0,-1.95e-06,0.0,42449.585,1450.674,36077.89,36065.011,PAYLOAD,LARGE,US,2001-11-27,FRGUI,,5177604,322307977,0 DIRECTV 4S,1 26985U 01052A   26126.32198751 -.00000195  00000-0  00000+0 0  9996,2 26985   6.1569  72.2047 0001517  52.1761 157.4052  0.99264185 50651,26985,S26985,-,26985,2001-052A,P,P,T4S,2001 Nov 27,S26986,DTVT,US,2001 Nov 27 0056,In Earth orbit,-,2026 May  5 ,1450.668,36065, ,36077, ,6.15, ,GEO/ID,26985,2.00173080813177
3.0,GENERATED VIA SPACE-TRACK.ORG API,2026-05-06T02:32:52,18 SPCS,MSAT M1,1996-022A,EARTH,TEME,UTC,SGP4,2026-05-05T20:45:40.728672,0.98643933,0.00168966,12.3816,28.684,207.2398,7.4592,0,U,23846,999,10966,0.0,3.6e-07,0.0,42627.342,1459.796,36321.233,36177.181,PAYLOAD,LARGE,CA,1996-04-20,FRGUI,,5176277,322215956,0 MSAT M1,1 23846U 96022A   26125.86505473  .00000036  00000-0  00000-0 0  9995,2 23846  12.3816  28.6840 0016897 207.2398   7.4592  0.98643933109660,23846,S23846,-,23846,1996-022A,P,P,M-SAT 1,1996 Apr 20,S23847,SKYTCA,CA,1996 Apr 20 2257,In Earth orbit,-,2026 May  4 ,1459.797,36177, ,36321, ,12.38, ,GEO/ID,23846,2.0030293696944645
3.0,GENERATED VIA SPACE-TRACK.ORG API,2026-05-06T14:56:52,18 SPCS,XM-4,2006-049A,EARTH,TEME,UTC,SGP4,2026-05-06T11:52:24.665088,0.98815795,0.0009588,2.7445,81.5029,313.0695,135.3185,0,U,29520,999,5093,0.0,-2.02e-06,0.0,42577.902,1457.257,36240.591,36158.944,PAYLOAD,LARGE,US,2006-10-30,SEAL,,5177654,322309694,0 XM-4,1 29520U 06049A   26126.49472992 -.00000202  00000-0  00000+0 0  9994,2 29520   2.7445  81.5029 0009588 313.0695 135.3185  0.98815795 50939,29520,S29520,-,29520,2006-049A,P,P,XM-4,2006 Oct 30,S29521,XMRS,US,2006 Oct 31 0059,In Earth orbit,-,2026 May  5 ,1457.248,36158, ,36240, ,2.74, ,GEO/D,29520,2.005299202765152
3.0,GENERATED VIA SPACE-TRACK.ORG API,2026-05-06T14:56:52,18 SPCS,AURORA 2,1991-037A,EARTH,TEME,UTC,SGP4,2026-05-06T08:04:37.710912,0.99019055,0.0005514,14.6828,5.5846,286.7874,67.5705,0,U,21392,999,12631,0.0,-1.14e-06,0.0,42519.615,1454.266,36164.925,36118.035,PAYLOAD,LARGE,US,1991-05-29,AFETR,,5177446,322303943,0 AURORA 2,1 21392U 91037A   26126.33654758 -.00000114  00000-0  00000+0 0  9991,2 21392  14.6828   5.5846 0005514 286.7874  67.5705  0.99019055126314,21392,S21392,-,21392,1991-037A,P,P      G,Satcom C5,1991 May 29,S21394,SESSAP,US,1991 May 30 2325?,In Earth orbit,-,2026 May  4 ,1454.274,36118, ,36165, ,14.68, ,GEO/ID,21392,2.006439140898244
